NILESAT 301             
1 52817U 22061A   23152.39771701 -.00000037  00000+0  00000+0 0  9991
2 52817   0.0473   1.9100 0005020  47.6623 336.2344  1.00273298  3599
CMS-02 (GSAT 24)        
1 52903U 22067A   23152.45960412 -.00000144  00000+0  00000+0 0  9998
2 52903   0.0847 263.5067 0008231 176.6310  58.0123  1.00271290  3472
MEASAT 3D               
1 52904U 22067B   23153.99863648 -.00000222  00000+0  00000+0 0  9999
2 52904   0.0315 327.6165 0001777  54.0254 320.5544  1.00273564  3513
SES-22                  
1 52933U 22071A   23153.71186234  .00000109  00000+0  00000+0 0  9998
2 52933   0.0173  45.3229 0001590  34.7733 292.0960  1.00273130  3404
WFOV (USA 332)          
1 52940U 22073A   23154.05812997 -.00000342  00000+0  00000+0 0  9998
2 52940   0.8444  93.7998 0003007  25.0728 272.5937  1.00270996  3238
TIANLIAN 2-03           
1 53100U 22078A   23154.05607360  .00000092  00000+0  00000+0 0  9999
2 53100   2.2017 281.6275 0002792 177.1057 183.2477  1.00269152  3429
SBIRS GEO-6 (USA 336)   
1 53355U 22092A   23152.99312071  .00000133  00000+0  00000+0 0  9996
2 53355   5.9754 311.2218 0008021 149.5854   1.9466  1.00272677  3098
EUTELSAT KONNECT VHTS   
1 53765U 22110A   23152.23397282  .00000037  00000+0  00000+0 0  9999
2 53765   0.0555 104.6301 0002665 323.4621 268.2601  1.00269246  2645
CHINASAT 1E (ZX 1E)     
1 53813U 22112A   23154.04165478 -.00000129  00000+0  00000+0 0  9999
2 53813   0.8505 277.9881 0003180 152.4592 277.2182  1.00272537  2707
SES-20                  
1 53960U 22123A   23152.46397331 -.00000080  00000+0  00000+0 0  9999
2 53960   0.0236  90.7996 0002328 354.4859 228.3267  1.00270555  2398
SES-21                  
1 53961U 22123B   23152.44724545  .00000090  00000+0  00000+0 0  9999
2 53961   0.0181  35.4715 0000955  29.5942 214.5991  1.00270408  2398
GALAXY 33 (G-33)        
1 54026U 22128A   23154.15191161  .00000099  00000+0  00000+0 0  9998
2 54026   0.0137 356.9494 0001959  78.9952  97.0934  1.00271346  2619
GALAXY 34 (G-34)        
1 54027U 22128B   23153.66137527  .00000079  00000+0  00000+0 0  9998
2 54027   0.0191 344.3751 0001717  91.0256 284.6184  1.00270229  2645
ANGOSAT 2               
1 54033U 22131A   23153.02649962  .00000156  00000+0  00000+0 0  9996
2 54033   0.0142  14.8368 0000749 129.1295 138.8028  1.00273788  2326
EUTELSAT HOTBIRD 13F    
1 54048U 22134A   23153.21576959  .00000022  00000+0  00000+0 0  9993
2 54048   0.0676 297.6671 0001287  36.4098 354.5332  1.00272916  2328
EUTELSAT HOTBIRD 13G    
1 54225U 22146A   23153.03243670  .00000108  00000+0  00000+0 0  9999
2 54225   0.0174 264.9391 0000889 320.8629  49.1249  1.00271225  2080
CHINASAT 19 (ZX 19)     
1 54230U 22148A   23154.45396675 -.00000061  00000+0  00000+0 0  9997
2 54230   0.0547 114.6925 0003473 147.0920 316.6134  1.00270027  2230
GALAXY 31 (G-31)        
1 54243U 22153A   23154.35978925  .00000033  00000+0  00000+0 0  9998
2 54243   0.0018  16.8314 0001607 278.1048 325.1507  1.00271068  2028
GALAXY 32 (G-32)        
1 54244U 22153B   23152.78879521 -.00000153  00000+0  00000+0 0  9990
2 54244   0.0155 353.4393 0002593  49.4279  40.1087  1.00271068  2003
EUTELSAT 10B            
1 54259U 22157A   23153.88243237  .00000029  00000+0  00000+0 0  9992
2 54259   0.0203 282.8235 0002782 144.4933 143.0677  1.00268097  1898
GALAXY 35 (G-35)        
1 54741U 22170A   23153.86356094 -.00000142  00000+0  00000+0 0  9994
2 54741   0.0156 355.1186 0000531  34.5006  79.2285  1.00272077  1764
GALAXY 36 (G-36)        
1 54742U 22170B   23153.86443260 -.00000165  00000+0  00000+0 0  9992
2 54742   0.0340  88.2475 0003564 359.3807  25.6424  1.00271433  1643
METEOSAT-12 (MTG-I1)    
1 54743U 22170C   23153.88138639 -.00000010  00000+0  00000+0 0  9995
2 54743   0.6627 308.7199 0003511 116.6929 139.5062  1.00274488  1840
SHIJIAN-23 (SJ-23)      
1 55131U 23002A   23153.93592168  .00000114  00000+0  00000+0 0  9993
2 55131   0.8515  92.8765 0000501   0.2817 184.1914  1.00457217  1373
USA 340                 
1 55138U 22144E   23136.76388889 -.00000287  00000+0  00000+0 0  9993
2 55138   3.0190  65.7891 0000098  88.0933 306.3390  1.00044829   496
USA 342                 
1 55263U 23008A   23151.52474490  .00000012  00000+0  00000+0 0  9992
2 55263   0.0444 122.0081 0012607 152.1083  39.8447  1.00539034  1365
LDPE-3A                 
1 55264U 23008B   23154.38104973  .00000141  00000+0  00000+0 0  9999
2 55264   0.2684  87.7068 0000992  46.9245 114.9184  0.99868320   676
ELEKTRO-L 4             
1 55506U 23016A   23153.84217014 -.00000038  00000+0  00000+0 0  9994
2 55506   0.2729 293.5950 0001725  49.6450  16.7713  1.00272859  1188
CHINASAT 26 (ZX 26)     
1 55686U 23023A   23153.47696826 -.00000333  00000+0  00000+0 0  9990
2 55686   0.0840  81.8664 0004074 356.5933 109.0502  1.00273009  1095
LUCH-5X (OLYMP-K 2)     
1 55841U 23031A   23153.89100116  .00000082  00000+0  00000+0 0  9990
2 55841   0.0148 281.4819 0000085 196.1764 103.1268  1.00274163   823
GAOFEN 13-02            
1 55912U 23036A   23153.83959063 -.00000210  00000+0  00000+0 0  9995
2 55912   2.8820 301.0956 0001702 282.3991 116.4941  1.00274354   969
SES-18                  
1 55970U 23038A   23153.69754115 -.00000091  00000+0  00000+0 0  9993
2 55970   0.0412 270.3935 0000357 309.3365 174.8441  1.00531105   968
SES-19                  
1 55971U 23038B   23152.99503833  .00000109  00000+0  00000+0 0  9994
2 55971   0.0538  98.9407 0002061 328.5626  46.0224  1.00270922   936
INTELSAT 40E (IS-40E)   
1 56174U 23052A   23154.07904848 -.00000154  00000+0  00000+0 0  9999
2 56174   0.0140 356.9423 0002202 106.3595  85.4267  1.00269163   704
ARCTURUS                
1 56371U 23060B   23153.70628378  .00000148  00000+0  00000+0 0  9999
2 56371   0.0405  28.8626 0001839  64.2424 249.2009  1.00272300   324
